STARLINK-37188
1 68404U 26063AA  26092.75002314 -.01863513  10549-2 -34952-2 0  9995
2 68404  97.2811 233.5623 0001600  68.4936 127.6824 16.01065014  2320
